QZS-2 (QZSS/PRN 184)    
1 42738U 17028A   17345.17294729 -.00000281  00000-0  00000+0 0  9994
2 42738  44.5082 287.1590 0743325 270.6948  80.7869  1.00283769  1961
